{"type":"FeatureCollection","features":[{"type":"Feature","id":"clickhouse:evt2_065055ee87185d6879886737","geometry":null,"properties":{"case":"clickhouse","event_id":"evt2_065055ee87185d6879886737","title":"NextGen Intelligence Conference: Data, Cloud & AI","start_date":"2026-11-16","country":"United Kingdom","city":"London","score":85,"components_json":"{\"term_fit\":40,\"target_region_scenario\":20,\"date_window\":15,\"published_event_url\":10,\"named_sponsor_evidence\":0}","matched_terms_json":"[\"data\",\"cloud\"]","source_url":"https://github.com/tech-conferences/conference-data/blob/main/conferences/2026/general.json","event_url":"https://techaiconf.com","latitude":null,"longitude":null,"interpretation":"research_priority_not_probability_or_ROI","missing":"price; availability; verified ICP attendance; current sponsor interest"}},{"type":"Feature","id":"clickhouse:evt2_5f76ed87f93cc6343ebe634c","geometry":null,"properties":{"case":"clickhouse","event_id":"evt2_5f76ed87f93cc6343ebe634c","title":"CLC","start_date":"2026-11-11","country":"Germany","city":"Mannheim","score":65,"components_json":"{\"term_fit\":20,\"target_region_scenario\":20,\"date_window\":15,\"published_event_url\":10,\"named_sponsor_evidence\":0}","matched_terms_json":"[\"devops\"]","source_url":"https://github.com/tech-conferences/conference-data/blob/main/conferences/2026/devops.json","event_url":"https://clc-conference.eu/index_en.php","latitude":null,"longitude":null,"interpretation":"research_priority_not_probability_or_ROI","missing":"price; availability; verified ICP attendance; current sponsor interest"}},{"type":"Feature","id":"clickhouse:evt2_062a670c2c4c117a4cf05322","geometry":null,"properties":{"case":"clickhouse","event_id":"evt2_062a670c2c4c117a4cf05322","title":"VibeKode Berlin","start_date":"2026-11-16","country":"Germany","city":"Berlin","score":65,"components_json":"{\"term_fit\":20,\"target_region_scenario\":20,\"date_window\":15,\"published_event_url\":10,\"named_sponsor_evidence\":0}","matched_terms_json":"[\"data\"]","source_url":"https://github.com/tech-conferences/conference-data/blob/main/conferences/2026/data.json","event_url":"https://vibekode.it/berlin","latitude":null,"longitude":null,"interpretation":"research_priority_not_probability_or_ROI","missing":"price; availability; verified ICP attendance; current sponsor interest"}},{"type":"Feature","id":"clickhouse:evt2_20fbc423117eb2dbaefe912a","geometry":null,"properties":{"case":"clickhouse","event_id":"evt2_20fbc423117eb2dbaefe912a","title":"MLCon Berlin","start_date":"2026-11-16","country":"Germany","city":"Berlin","score":65,"components_json":"{\"term_fit\":20,\"target_region_scenario\":20,\"date_window\":15,\"published_event_url\":10,\"named_sponsor_evidence\":0}","matched_terms_json":"[\"data\"]","source_url":"https://github.com/tech-conferences/conference-data/blob/main/conferences/2026/data.json","event_url":"https://mlconference.ai/berlin","latitude":null,"longitude":null,"interpretation":"research_priority_not_probability_or_ROI","missing":"price; availability; verified ICP attendance; current sponsor interest"}},{"type":"Feature","id":"clickhouse:evt2_ea979f31184ba4a70306d81c","geometry":null,"properties":{"case":"clickhouse","event_id":"evt2_ea979f31184ba4a70306d81c","title":"AI Engineering Summit","start_date":"2026-11-16","country":"Germany","city":"Berlin","score":65,"components_json":"{\"term_fit\":20,\"target_region_scenario\":20,\"date_window\":15,\"published_event_url\":10,\"named_sponsor_evidence\":0}","matched_terms_json":"[\"data\"]","source_url":"https://github.com/tech-conferences/conference-data/blob/main/conferences/2026/data.json","event_url":"https://ai-engineering-summit.de","latitude":null,"longitude":null,"interpretation":"research_priority_not_probability_or_ROI","missing":"price; availability; verified ICP attendance; current sponsor interest"}},{"type":"Feature","id":"clickhouse:evt2_96cd6764b4f983f2120ad2b7","geometry":null,"properties":{"case":"clickhouse","event_id":"evt2_96cd6764b4f983f2120ad2b7","title":"AI World Congress","start_date":"2026-11-25","country":"United Kingdom","city":"London","score":65,"components_json":"{\"term_fit\":20,\"target_region_scenario\":20,\"date_window\":15,\"published_event_url\":10,\"named_sponsor_evidence\":0}","matched_terms_json":"[\"data\"]","source_url":"https://github.com/tech-conferences/conference-data/blob/main/conferences/2026/data.json","event_url":"https://aiconference.london","latitude":null,"longitude":null,"interpretation":"research_priority_not_probability_or_ROI","missing":"price; availability; verified ICP attendance; current sponsor interest"}},{"type":"Feature","id":"clickhouse:evt2_0d74249f09e61007a49ddaa6","geometry":null,"properties":{"case":"clickhouse","event_id":"evt2_0d74249f09e61007a49ddaa6","title":"ESPC","start_date":"2026-11-30","country":"Netherlands","city":"Amsterdam","score":65,"components_json":"{\"term_fit\":20,\"target_region_scenario\":20,\"date_window\":15,\"published_event_url\":10,\"named_sponsor_evidence\":0}","matched_terms_json":"[\"data\"]","source_url":"https://github.com/tech-conferences/conference-data/blob/main/conferences/2026/data.json","event_url":"https://www.sharepointeurope.com","latitude":null,"longitude":null,"interpretation":"research_priority_not_probability_or_ROI","missing":"price; availability; verified ICP attendance; current sponsor interest"}},{"type":"Feature","id":"clickhouse:evt2_5b2414053cd86cf0d4583b14","geometry":null,"properties":{"case":"clickhouse","event_id":"evt2_5b2414053cd86cf0d4583b14","title":"DevOpsCon Munich","start_date":"2026-11-30","country":"Germany","city":"Munich","score":65,"components_json":"{\"term_fit\":20,\"target_region_scenario\":20,\"date_window\":15,\"published_event_url\":10,\"named_sponsor_evidence\":0}","matched_terms_json":"[\"devops\"]","source_url":"https://github.com/tech-conferences/conference-data/blob/main/conferences/2026/devops.json","event_url":"https://devopscon.io/muenchen","latitude":null,"longitude":null,"interpretation":"research_priority_not_probability_or_ROI","missing":"price; availability; verified ICP attendance; current sponsor interest"}},{"type":"Feature","id":"clickhouse:evt2_e6a55a26345d1284c6025617","geometry":null,"properties":{"case":"clickhouse","event_id":"evt2_e6a55a26345d1284c6025617","title":"IT Security Summit Munich","start_date":"2026-11-30","country":"Germany","city":"Munich","score":65,"components_json":"{\"term_fit\":20,\"target_region_scenario\":20,\"date_window\":15,\"published_event_url\":10,\"named_sponsor_evidence\":0}","matched_terms_json":"[\"devops\"]","source_url":"https://github.com/tech-conferences/conference-data/blob/main/conferences/2026/devops.json","event_url":"https://it-security-summit.com/munich","latitude":null,"longitude":null,"interpretation":"research_priority_not_probability_or_ROI","missing":"price; availability; verified ICP attendance; current sponsor interest"}},{"type":"Feature","id":"clickhouse:evt2_1a8d3ffe27430eeeb209c05f","geometry":null,"properties":{"case":"clickhouse","event_id":"evt2_1a8d3ffe27430eeeb209c05f","title":"IT-Tage","start_date":"2026-12-07","country":"Germany","city":"Frankfurt am Main","score":65,"components_json":"{\"term_fit\":20,\"target_region_scenario\":20,\"date_window\":15,\"published_event_url\":10,\"named_sponsor_evidence\":0}","matched_terms_json":"[\"data\"]","source_url":"https://github.com/tech-conferences/conference-data/blob/main/conferences/2026/data.json","event_url":"https://www.it-tage.org","latitude":null,"longitude":null,"interpretation":"research_priority_not_probability_or_ROI","missing":"price; availability; verified ICP attendance; current sponsor interest"}},{"type":"Feature","id":"snowflake:evt2_065055ee87185d6879886737","geometry":null,"properties":{"case":"snowflake","event_id":"evt2_065055ee87185d6879886737","title":"NextGen Intelligence Conference: Data, Cloud & AI","start_date":"2026-11-16","country":"United Kingdom","city":"London","score":85,"components_json":"{\"term_fit\":40,\"target_region_scenario\":20,\"date_window\":15,\"published_event_url\":10,\"named_sponsor_evidence\":0}","matched_terms_json":"[\"data\",\"ai\"]","source_url":"https://github.com/tech-conferences/conference-data/blob/main/conferences/2026/general.json","event_url":"https://techaiconf.com","latitude":null,"longitude":null,"interpretation":"research_priority_not_probability_or_ROI","missing":"price; availability; verified ICP attendance; current sponsor interest"}},{"type":"Feature","id":"snowflake:evt2_ea979f31184ba4a70306d81c","geometry":null,"properties":{"case":"snowflake","event_id":"evt2_ea979f31184ba4a70306d81c","title":"AI Engineering Summit","start_date":"2026-11-16","country":"Germany","city":"Berlin","score":85,"components_json":"{\"term_fit\":40,\"target_region_scenario\":20,\"date_window\":15,\"published_event_url\":10,\"named_sponsor_evidence\":0}","matched_terms_json":"[\"data\",\"ai\"]","source_url":"https://github.com/tech-conferences/conference-data/blob/main/conferences/2026/data.json","event_url":"https://ai-engineering-summit.de","latitude":null,"longitude":null,"interpretation":"research_priority_not_probability_or_ROI","missing":"price; availability; verified ICP attendance; current sponsor interest"}},{"type":"Feature","id":"snowflake:evt2_96cd6764b4f983f2120ad2b7","geometry":null,"properties":{"case":"snowflake","event_id":"evt2_96cd6764b4f983f2120ad2b7","title":"AI World Congress","start_date":"2026-11-25","country":"United Kingdom","city":"London","score":85,"components_json":"{\"term_fit\":40,\"target_region_scenario\":20,\"date_window\":15,\"published_event_url\":10,\"named_sponsor_evidence\":0}","matched_terms_json":"[\"data\",\"ai\"]","source_url":"https://github.com/tech-conferences/conference-data/blob/main/conferences/2026/data.json","event_url":"https://aiconference.london","latitude":null,"longitude":null,"interpretation":"research_priority_not_probability_or_ROI","missing":"price; availability; verified ICP attendance; current sponsor interest"}},{"type":"Feature","id":"snowflake:evt2_875de1f6b99c2a50b7e51e6d","geometry":null,"properties":{"case":"snowflake","event_id":"evt2_875de1f6b99c2a50b7e51e6d","title":"Open Source Analytics Conference","start_date":"2026-11-02","country":"United States","city":"San Francisco, CA","score":65,"components_json":"{\"term_fit\":40,\"target_region_scenario\":0,\"date_window\":15,\"published_event_url\":10,\"named_sponsor_evidence\":0}","matched_terms_json":"[\"data\",\"analytics\"]","source_url":"https://github.com/tech-conferences/conference-data/blob/main/conferences/2026/data.json","event_url":"https://osacon.io","latitude":null,"longitude":null,"interpretation":"research_priority_not_probability_or_ROI","missing":"price; availability; verified ICP attendance; current sponsor interest"}},{"type":"Feature","id":"snowflake:evt2_b9c3511107a46dc07dca62f7","geometry":null,"properties":{"case":"snowflake","event_id":"evt2_b9c3511107a46dc07dca62f7","title":"AI DevCon NYC","start_date":"2026-11-02","country":"United States","city":"Brooklyn, NY","score":65,"components_json":"{\"term_fit\":40,\"target_region_scenario\":0,\"date_window\":15,\"published_event_url\":10,\"named_sponsor_evidence\":0}","matched_terms_json":"[\"data\",\"ai\"]","source_url":"https://github.com/tech-conferences/conference-data/blob/main/conferences/2026/data.json","event_url":"https://tessl.io/devcon","latitude":null,"longitude":null,"interpretation":"research_priority_not_probability_or_ROI","missing":"price; availability; verified ICP attendance; current sponsor interest"}},{"type":"Feature","id":"snowflake:evt2_37fd10a36c783e1ea8656549","geometry":null,"properties":{"case":"snowflake","event_id":"evt2_37fd10a36c783e1ea8656549","title":"The AI Conf","start_date":"2026-11-03","country":"Spain","city":"Barcelona","score":65,"components_json":"{\"term_fit\":40,\"target_region_scenario\":0,\"date_window\":15,\"published_event_url\":10,\"named_sponsor_evidence\":0}","matched_terms_json":"[\"data\",\"ai\"]","source_url":"https://github.com/tech-conferences/conference-data/blob/main/conferences/2026/data.json","event_url":"https://theconf.ai","latitude":null,"longitude":null,"interpretation":"research_priority_not_probability_or_ROI","missing":"price; availability; verified ICP attendance; current sponsor interest"}},{"type":"Feature","id":"snowflake:evt_3c178dedf76003d2","geometry":null,"properties":{"case":"snowflake","event_id":"evt_3c178dedf76003d2","title":"Python Leiden User Group","start_date":"2026-11-12","country":"Netherlands","city":null,"score":65,"components_json":"{\"term_fit\":20,\"target_region_scenario\":20,\"date_window\":15,\"published_event_url\":10,\"named_sponsor_evidence\":0}","matched_terms_json":"[\"python\"]","source_url":"https://www.google.com/calendar/ical/3haig2m9msslkpf2tn1h56nn9g@group.calendar.google.com/public/basic.ics","event_url":"https://pythonleiden.nl/meeting-2026-11-12.html","latitude":null,"longitude":null,"interpretation":"research_priority_not_probability_or_ROI","missing":"price; availability; verified ICP attendance; current sponsor interest"}},{"type":"Feature","id":"snowflake:evt_0ad70410c453833c","geometry":null,"properties":{"case":"snowflake","event_id":"evt_0ad70410c453833c","title":"Python Meeting Düsseldorf: Sprint","start_date":"2026-11-14","country":"Germany","city":null,"score":65,"components_json":"{\"term_fit\":20,\"target_region_scenario\":20,\"date_window\":15,\"published_event_url\":10,\"named_sponsor_evidence\":0}","matched_terms_json":"[\"python\"]","source_url":"https://www.google.com/calendar/ical/3haig2m9msslkpf2tn1h56nn9g@group.calendar.google.com/public/basic.ics","event_url":"https://www.pyddf.de/","latitude":null,"longitude":null,"interpretation":"research_priority_not_probability_or_ROI","missing":"price; availability; verified ICP attendance; current sponsor interest"}},{"type":"Feature","id":"snowflake:evt2_062a670c2c4c117a4cf05322","geometry":null,"properties":{"case":"snowflake","event_id":"evt2_062a670c2c4c117a4cf05322","title":"VibeKode Berlin","start_date":"2026-11-16","country":"Germany","city":"Berlin","score":65,"components_json":"{\"term_fit\":20,\"target_region_scenario\":20,\"date_window\":15,\"published_event_url\":10,\"named_sponsor_evidence\":0}","matched_terms_json":"[\"data\"]","source_url":"https://github.com/tech-conferences/conference-data/blob/main/conferences/2026/data.json","event_url":"https://vibekode.it/berlin","latitude":null,"longitude":null,"interpretation":"research_priority_not_probability_or_ROI","missing":"price; availability; verified ICP attendance; current sponsor interest"}},{"type":"Feature","id":"snowflake:evt2_20fbc423117eb2dbaefe912a","geometry":null,"properties":{"case":"snowflake","event_id":"evt2_20fbc423117eb2dbaefe912a","title":"MLCon Berlin","start_date":"2026-11-16","country":"Germany","city":"Berlin","score":65,"components_json":"{\"term_fit\":20,\"target_region_scenario\":20,\"date_window\":15,\"published_event_url\":10,\"named_sponsor_evidence\":0}","matched_terms_json":"[\"data\"]","source_url":"https://github.com/tech-conferences/conference-data/blob/main/conferences/2026/data.json","event_url":"https://mlconference.ai/berlin","latitude":null,"longitude":null,"interpretation":"research_priority_not_probability_or_ROI","missing":"price; availability; verified ICP attendance; current sponsor interest"}}]}